NOAA 15                 
1 25338U 98030A   20027.13347514  .00000016  00000-0  25349-4 0  9994
2 25338  98.7308  52.8071 0009710 320.9581  39.0896 14.25948866128948
NOAA 18                 
1 28654U 05018A   20026.78339252  .00000083  00000-0  69979-4 0  9993
2 28654  99.0660  81.7376 0013347 272.6706  87.2937 14.12484177756864
METOP-A                 
1 29499U 06044A   20027.18378517  .00000003  00000-0  20800-4 0  9995
2 29499  98.5448  78.6966 0000725  69.1519   4.8390 14.21494412688671
NOAA 19                 
1 33591U 09005A   20027.13192508  .00000018  00000-0  34858-4 0  9996
2 33591  99.1934  28.7882 0014835 113.4103 246.8630 14.12393260565306
METOP-B                 
1 38771U 12049A   20027.16264973 -.00000001  00000-0  19761-4 0  9991
2 38771  98.7133  88.4988 0001961  79.0957 339.4545 14.21484434381806
SARAL                   
1 39086U 13009A   20026.84951291 -.00000024  00000-0  70974-5 0  9997
2 39086  98.5393 214.6001 0000775  35.4816 324.6419 14.32018901361597
METOP-C                 
1 43689U 18087A   20026.83807975 -.00000044  00000-0  00000-0 0  9990
2 43689  98.7190  88.3618 0003754  53.4990 306.6532 14.21690328 63335
ANGELS                  
1 44876U 19092D   20026.57891137 -.00000066  00000-0  00000-0 0  9994
2 44876  97.4551 212.3447 0013193 142.5336 217.6848 15.16248299  5936